HULIANWANG DIGUI-122    
1 67062U 25295D   25358.68840825  .00000017  00000+0  74037-4 0  9990
2 67062  50.0052 321.7830 0013164 295.5417  64.4135 14.25758016  1820
HULIANWANG DIGUI-123    
1 67063U 25295E   25357.77613648 -.00000005  00000+0  64662-4 0  9992
2 67063  50.0059 325.6275 0012473 291.5304  68.4280 14.25890271  1697
HULIANWANG DIGUI-124    
1 67064U 25295F   25356.23385528 -.00000684  00000+0 -21790-3 0  9994
2 67064  50.0035 332.1235 0012142 280.5756  79.3790 14.25948838  1479
HULIANWANG DIGUI-125    
1 67065U 25295G   25358.12599950 -.00000004  00000+0  65029-4 0  9990
2 67065  50.0009 324.1276 0012265 293.4537  66.5087 14.25956035  1748
HULIANWANG DIGUI-126    
1 67066U 25295H   25358.68535505  .00000034  00000+0  80653-4 0  9990
2 67066  50.0012 321.7514 0011421 292.7089  67.2617 14.26099416  1826
HULIANWANG DIGUI-127    
1 67067U 25295J   25356.65216912 -.00000825  00000+0 -27535-3 0  9993
2 67067  50.0053 330.3407 0010850 289.3117  70.6623 14.26251195  1535
CZ-12 R/B               
1 67068U 25295K   25361.11903522 -.00000026  00000+0  43047-4 0  9990
2 67068  49.9943 309.9386 0056902 187.4653 172.5425 14.41130715  2185
XIWANG-5 02             
1 67069U 25296A   25357.50051046  .00011945  00000+0  60249-3 0  9998
2 67069  41.3523  40.1941 0014556 102.8792 257.3656 15.16891516  1599
DEAR-5                  
1 67070U 25296B   25360.98922840  .00006748  00000+0  34472-3 0  9999
2 67070  41.3552  20.2864 0016625 129.8184 230.4103 15.16901884  2117
RAISE-4                 
1 67073U 25297B   25360.90669062  .00006635  00000+0  44340-3 0  9999
2 67073  97.4853 148.0738 0011685 267.6783  92.3107 15.07251265  1920
ELECTRON KICK STAGE R/B 
1 67074U 25297C   25361.14166597  .00396589  45547-4  19472-2 0  9999
2 67074  97.4808 149.3126 0185190 217.2258 141.6045 15.61270554  2020
STARLINK-36230          
1 67075U 25298A   25361.16668980 -.01758549  00000+0 -14241-1 0  9995
2 67075  70.0013 208.9633 0003833 277.4485  95.0470 15.73576332  3294
